FENGYUN 1C DEB          
1 31054U 99025BEY 17345.88021098  .00000101  00000-0  81696-4 0  9990
2 31054  98.9699   8.9252 0011043 113.3966  10.3984 14.10745954555403
